{
  "type": "FeatureCollection",
  "name": "UL09_route_plan_v3",
  "crs": {
    "type": "name",
    "properties": {
      "name": "urn:ogc:def:crs:OGC:1.3:CRS84"
    }
  },
  "features": [
    {
      "type": "Feature",
      "properties": {
        "name": "UL09 planned route v3",
        "class": "planned-route",
        "version": "3.2"
      },
      "geometry": {
        "type": "LineString",
        "coordinates": [
          [
            114.199,
            2.439
          ],
          [
            114.2043,
            2.4352
          ],
          [
            114.209,
            2.4311
          ],
          [
            114.2142,
            2.4266
          ],
          [
            114.2196,
            2.4219
          ],
          [
            114.2258,
            2.4175
          ],
          [
            114.2322,
            2.4141
          ],
          [
            114.2394,
            2.411
          ],
          [
            114.248,
            2.405
          ]
        ]
      }
    },
    {
      "type": "Feature",
      "properties": {
        "name": "Camp A",
        "class": "camp"
      },
      "geometry": {
        "type": "Point",
        "coordinates": [
          114.2024,
          2.43582
        ]
      }
    },
    {
      "type": "Feature",
      "properties": {
        "name": "Camp B",
        "class": "camp"
      },
      "geometry": {
        "type": "Point",
        "coordinates": [
          114.22612,
          2.41786
        ]
      }
    },
    {
      "type": "Feature",
      "properties": {
        "name": "Evac North",
        "class": "evac"
      },
      "geometry": {
        "type": "Point",
        "coordinates": [
          114.197,
          2.444
        ]
      }
    },
    {
      "type": "Feature",
      "properties": {
        "name": "Evac River",
        "class": "evac"
      },
      "geometry": {
        "type": "Point",
        "coordinates": [
          114.2485,
          2.4048
        ]
      }
    }
  ]
}